{
  "type": "FeatureCollection",
  "features": [
    {
      "type": "Feature",
      "properties": {
        "OBJECT_NAME": "FENGYUN 3B",
        "OBJECT_ID": "2010-059A",
        "EPOCH": "2025-11-29T21:03:15.907680",
        "MEAN_MOTION": 14.14784057,
        "ECCENTRICITY": 0.0022602,
        "INCLINATION": 98.9926,
        "RA_OF_ASC_NODE": 13.7637,
        "ARG_OF_PERICENTER": 33.8898,
        "MEAN_ANOMALY": 45.7432,
        "EPHEMERIS_TYPE": 0,
        "CLASSIFICATION_TYPE": "U",
        "NORAD_CAT_ID": 37214,
        "ELEMENT_SET_NO": 999,
        "REV_AT_EPOCH": 77924,
        "BSTAR": 7.6036e-05,
        "MEAN_MOTION_DOT": 1.02e-06,
        "MEAN_MOTION_DDOT": 0,
        "norad_id": 37214,
        "name": "FENGYUN 3B",
        "group": "weather",
        "longitude_deg": NaN,
        "latitude_deg": NaN,
        "alt_km": NaN,
        "orbit_class": "HEO",
        "timestamp": "2025-11-30T07:29:52.807928+00:00"
      },
      "geometry": {
        "type": "Point",
        "coordinates": [
          NaN,
          NaN
        ]
      }
    },
    {
      "type": "Feature",
      "properties": {
        "OBJECT_NAME": "SUOMI NPP",
        "OBJECT_ID": "2011-061A",
        "EPOCH": "2025-11-29T20:45:46.050912",
        "MEAN_MOTION": 14.19508272,
        "ECCENTRICITY": 0.0001747,
        "INCLINATION": 98.7753,
        "RA_OF_ASC_NODE": 271.3238,
        "ARG_OF_PERICENTER": 143.9216,
        "MEAN_ANOMALY": 216.2078,
        "EPHEMERIS_TYPE": 0,
        "CLASSIFICATION_TYPE": "U",
        "NORAD_CAT_ID": 37849,
        "ELEMENT_SET_NO": 999,
        "REV_AT_EPOCH": 73016,
        "BSTAR": 7.2786e-05,
        "MEAN_MOTION_DOT": 1.09e-06,
        "MEAN_MOTION_DDOT": 0,
        "norad_id": 37849,
        "name": "SUOMI NPP",
        "group": "weather",
        "longitude_deg": NaN,
        "latitude_deg": NaN,
        "alt_km": NaN,
        "orbit_class": "HEO",
        "timestamp": "2025-11-30T07:29:52.808305+00:00"
      },
      "geometry": {
        "type": "Point",
        "coordinates": [
          NaN,
          NaN
        ]
      }
    },
    {
      "type": "Feature",
      "properties": {
        "OBJECT_NAME": "METEOSAT-10 (MSG-3)",
        "OBJECT_ID": "2012-035B",
        "EPOCH": "2025-11-29T01:53:12.322176",
        "MEAN_MOTION": 1.00272011,
        "ECCENTRICITY": 4.732e-05,
        "INCLINATION": 4.194,
        "RA_OF_ASC_NODE": 61.7431,
        "ARG_OF_PERICENTER": 218.6575,
        "MEAN_ANOMALY": 176.2279,
        "EPHEMERIS_TYPE": 0,
        "CLASSIFICATION_TYPE": "U",
        "NORAD_CAT_ID": 38552,
        "ELEMENT_SET_NO": 999,
        "REV_AT_EPOCH": 4885,
        "BSTAR": 0,
        "MEAN_MOTION_DOT": 1.5e-07,
        "MEAN_MOTION_DDOT": 0,
        "norad_id": 38552,
        "name": "METEOSAT-10 (MSG-3)",
        "group": "weather",
        "longitude_deg": NaN,
        "latitude_deg": NaN,
        "alt_km": NaN,
        "orbit_class": "HEO",
        "timestamp": "2025-11-30T07:29:52.808600+00:00"
      },
      "geometry": {
        "type": "Point",
        "coordinates": [
          NaN,
          NaN
        ]
      }
    },
    {
      "type": "Feature",
      "properties": {
        "OBJECT_NAME": "METOP-B",
        "OBJECT_ID": "2012-049A",
        "EPOCH": "2025-11-29T18:29:17.250720",
        "MEAN_MOTION": 14.21400707,
        "ECCENTRICITY": 0.0002301,
        "INCLINATION": 98.6819,
        "RA_OF_ASC_NODE": 23.9479,
        "ARG_OF_PERICENTER": 174.2894,
        "MEAN_ANOMALY": 185.8309,
        "EPHEMERIS_TYPE": 0,
        "CLASSIFICATION_TYPE": "U",
        "NORAD_CAT_ID": 38771,
        "ELEMENT_SET_NO": 999,
        "REV_AT_EPOCH": 68493,
        "BSTAR": 8.9493e-05,
        "MEAN_MOTION_DOT": 1.52e-06,
        "MEAN_MOTION_DDOT": 0,
        "norad_id": 38771,
        "name": "METOP-B",
        "group": "weather",
        "longitude_deg": NaN,
        "latitude_deg": NaN,
        "alt_km": NaN,
        "orbit_class": "HEO",
        "timestamp": "2025-11-30T07:29:52.808697+00:00"
      },
      "geometry": {
        "type": "Point",
        "coordinates": [
          NaN,
          NaN
        ]
      }
    },
    {
      "type": "Feature",
      "properties": {
        "OBJECT_NAME": "INSAT-3D",
        "OBJECT_ID": "2013-038B",
        "EPOCH": "2025-11-29T19:37:28.937856",
        "MEAN_MOTION": 1.00275945,
        "ECCENTRICITY": 0.0001608,
        "INCLINATION": 1.4082,
        "RA_OF_ASC_NODE": 85.1484,
        "ARG_OF_PERICENTER": 146.9375,
        "MEAN_ANOMALY": 260.7195,
        "EPHEMERIS_TYPE": 0,
        "CLASSIFICATION_TYPE": "U",
        "NORAD_CAT_ID": 39216,
        "ELEMENT_SET_NO": 999,
        "REV_AT_EPOCH": 4508,
        "BSTAR": 0,
        "MEAN_MOTION_DOT": -3.17e-06,
        "MEAN_MOTION_DDOT": 0,
        "norad_id": 39216,
        "name": "INSAT-3D",
        "group": "weather",
        "longitude_deg": NaN,
        "latitude_deg": NaN,
        "alt_km": NaN,
        "orbit_class": "HEO",
        "timestamp": "2025-11-30T07:29:52.809199+00:00"
      },
      "geometry": {
        "type": "Point",
        "coordinates": [
          NaN,
          NaN
        ]
      }
    },
    {
      "type": "Feature",
      "properties": {
        "OBJECT_NAME": "FENGYUN 3C",
        "OBJECT_ID": "2013-052A",
        "EPOCH": "2025-11-29T19:27:37.039968",
        "MEAN_MOTION": 14.1568994,
        "ECCENTRICITY": 0.0013702,
        "INCLINATION": 98.475,
        "RA_OF_ASC_NODE": 312.1224,
        "ARG_OF_PERICENTER": 235.1143,
        "MEAN_ANOMALY": 124.8745,
        "EPHEMERIS_TYPE": 0,
        "CLASSIFICATION_TYPE": "U",
        "NORAD_CAT_ID": 39260,
        "ELEMENT_SET_NO": 999,
        "REV_AT_EPOCH": 63035,
        "BSTAR": 8.5719e-05,
        "MEAN_MOTION_DOT": 1.27e-06,
        "MEAN_MOTION_DDOT": 0,
        "norad_id": 39260,
        "name": "FENGYUN 3C",
        "group": "weather",
        "longitude_deg": NaN,
        "latitude_deg": NaN,
        "alt_km": NaN,
        "orbit_class": "HEO",
        "timestamp": "2025-11-30T07:29:52.809293+00:00"
      },
      "geometry": {
        "type": "Point",
        "coordinates": [
          NaN,
          NaN
        ]
      }
    },
    {
      "type": "Feature",
      "properties": {
        "OBJECT_NAME": "METEOR-M 2",
        "OBJECT_ID": "2014-037A",
        "EPOCH": "2025-11-29T20:47:21.801120",
        "MEAN_MOTION": 14.21378559,
        "ECCENTRICITY": 0.0004627,
        "INCLINATION": 98.4889,
        "RA_OF_ASC_NODE": 311.9452,
        "ARG_OF_PERICENTER": 253.5988,
        "MEAN_ANOMALY": 106.4681,
        "EPHEMERIS_TYPE": 0,
        "CLASSIFICATION_TYPE": "U",
        "NORAD_CAT_ID": 40069,
        "ELEMENT_SET_NO": 999,
        "REV_AT_EPOCH": 59100,
        "BSTAR": 9.7376e-05,
        "MEAN_MOTION_DOT": 1.71e-06,
        "MEAN_MOTION_DDOT": 0,
        "norad_id": 40069,
        "name": "METEOR-M 2",
        "group": "weather",
        "longitude_deg": NaN,
        "latitude_deg": NaN,
        "alt_km": NaN,
        "orbit_class": "HEO",
        "timestamp": "2025-11-30T07:29:52.809944+00:00"
      },
      "geometry": {
        "type": "Point",
        "coordinates": [
          NaN,
          NaN
        ]
      }
    },
    {
      "type": "Feature",
      "properties": {
        "OBJECT_NAME": "HIMAWARI-8",
        "OBJECT_ID": "2014-060A",
        "EPOCH": "2025-11-29T19:31:12.437760",
        "MEAN_MOTION": 1.00273551,
        "ECCENTRICITY": 0.000102,
        "INCLINATION": 0.0365,
        "RA_OF_ASC_NODE": 160.4805,
        "ARG_OF_PERICENTER": 112.4406,
        "MEAN_ANOMALY": 229.5093,
        "EPHEMERIS_TYPE": 0,
        "CLASSIFICATION_TYPE": "U",
        "NORAD_CAT_ID": 40267,
        "ELEMENT_SET_NO": 999,
        "REV_AT_EPOCH": 4076,
        "BSTAR": 0,
        "MEAN_MOTION_DOT": -2.54e-06,
        "MEAN_MOTION_DDOT": 0,
        "norad_id": 40267,
        "name": "HIMAWARI-8",
        "group": "weather",
        "longitude_deg": NaN,
        "latitude_deg": NaN,
        "alt_km": NaN,
        "orbit_class": "HEO",
        "timestamp": "2025-11-30T07:29:52.810146+00:00"
      },
      "geometry": {
        "type": "Point",
        "coordinates": [
          NaN,
          NaN
        ]
      }
    }
  ]
}