FENGYUN 3B              
1 37214U 10059A   25333.87726745  .00000102  00000+0  76036-4 0  9992
2 37214  98.9926  13.7637 0022602  33.8898  45.7432 14.14784057779245
SUOMI NPP               
1 37849U 11061A   25333.86511633  .00000109  00000+0  72786-4 0  9992
2 37849  98.7753 271.3238 0001747 143.9216 216.2078 14.19508272730165
METEOSAT-10 (MSG-3)     
1 38552U 12035B   25333.07861484  .00000015  00000+0  00000+0 0  9992
2 38552   4.1940  61.7431 0000473 218.6575 176.2279  1.00272011 48856
METOP-B                 
1 38771U 12049A   25333.77033855  .00000152  00000+0  89493-4 0  9990
2 38771  98.6819  23.9479 0002301 174.2894 185.8309 14.21400707684934
INSAT-3D                
1 39216U 13038B   25333.81769604 -.00000317  00000+0  00000+0 0  9993
2 39216   1.4082  85.1484 0001608 146.9375 260.7195  1.00275945 45088
FENGYUN 3C              
1 39260U 13052A   25333.81084537  .00000127  00000+0  85719-4 0  9996
2 39260  98.4750 312.1224 0013702 235.1143 124.8745 14.15689940630357
METEOR-M 2              
1 40069U 14037A   25333.86622455  .00000171  00000+0  97376-4 0  9992
2 40069  98.4889 311.9452 0004627 253.5988 106.4681 14.21378559591007
HIMAWARI-8              
1 40267U 14060A   25333.81333840 -.00000254  00000+0  00000+0 0  9996
2 40267   0.0365 160.4805 0001020 112.4406 229.5093  1.00273551 40761
